{
  "norad_id": 62476,
  "name": "STARLINK-32734",
  "history": [
    {
      "epoch": "2026-03-28T20:43:08.535936Z",
      "apogee_km": 484.114501711495,
      "perigee_km": 481.80066617400644,
      "latitude_deg": -5.853328153056211e-05,
      "longitude_deg": 131.17073462097738,
      "height_km": 482.6529306373709,
      "semi_major_axis_km": 6861.09458394275,
      "eccentricity": 0.00016862,
      "inclination_deg": 43.0003,
      "raan_deg": 268.234,
      "arg_perigee_deg": 274.0461,
      "mean_anomaly_deg": 86.0197,
      "mean_motion_rev_day": 15.27610562
    },
    {
      "epoch": "2026-03-29T04:33:55.565280Z",
      "apogee_km": 483.7735857503694,
      "perigee_km": 482.2421782127112,
      "latitude_deg": 2.865479232744176e-05,
      "longitude_deg": 11.304631969421237,
      "height_km": 482.62185634568135,
      "semi_major_axis_km": 6861.14488198154,
      "eccentricity": 0.0001116,
      "inclination_deg": 42.9993,
      "raan_deg": 266.386,
      "arg_perigee_deg": 282.2454,
      "mean_anomaly_deg": 77.8273,
      "mean_motion_rev_day": 15.27593764
    },
    {
      "epoch": "2026-03-30T04:06:17.180352Z",
      "apogee_km": 483.70263294480264,
      "perigee_km": 482.40175147395894,
      "latitude_deg": 2.5755758612153174e-05,
      "longitude_deg": 11.708140446949542,
      "height_km": 482.61981339110963,
      "semi_major_axis_km": 6861.18919220938,
      "eccentricity": 9.48e-05,
      "inclination_deg": 42.9983,
      "raan_deg": 260.8463,
      "arg_perigee_deg": 288.6949,
      "mean_anomaly_deg": 71.38,
      "mean_motion_rev_day": 15.27578966
    },
    {
      "epoch": "2026-03-30T11:57:04.286592Z",
      "apogee_km": 483.54469716168023,
      "perigee_km": 482.5205989800088,
      "latitude_deg": -2.829092693359085e-05,
      "longitude_deg": -108.15463377296605,
      "height_km": 482.574123733911,
      "semi_major_axis_km": 6861.169648070844,
      "eccentricity": 7.463e-05,
      "inclination_deg": 42.9952,
      "raan_deg": 259.0021,
      "arg_perigee_deg": 297.203,
      "mean_anomaly_deg": 62.8745,
      "mean_motion_rev_day": 15.27585493
    },
    {
      "epoch": "2026-03-30T19:47:51.042048Z",
      "apogee_km": 484.14296031361937,
      "perigee_km": 481.8760375103784,
      "latitude_deg": 4.619191611992374e-05,
      "longitude_deg": 131.98279468656372,
      "height_km": 482.7848754746793,
      "semi_major_axis_km": 6861.146498911999,
      "eccentricity": 0.0001652,
      "inclination_deg": 43.002,
      "raan_deg": 257.1565,
      "arg_perigee_deg": 270.0883,
      "mean_anomaly_deg": 89.978,
      "mean_motion_rev_day": 15.27593224
    }
  ]
}